{"type": "FeatureCollection", "features": [ {"type": "Feature", "properties": {"norad_id": 39778, "name": "IRIDIUM 33 DEB", "group": "iridium-33-debris", "lat": -21.987880284649677, "lon": 44.34519542718407, "alt_km": 716.4546937674204, "timestamp": "2025-12-06T18:50:10.555133+00:00", "meta": {"OBJECT_NAME": "IRIDIUM 33 DEB", "OBJECT_ID": "1997-051AAK", "EPOCH": "2025-12-06T04:04:26.955552", "MEAN_MOTION": 14.54189534, "ECCENTRICITY": 0.00086299, "INCLINATION": 86.3781, "RA_OF_ASC_NODE": 46.0776, "ARG_OF_PERICENTER": 61.1506, "MEAN_ANOMALY": 299.0566, "EPHEMERIS_TYPE": 0, "CLASSIFICATION_TYPE": "U", "NORAD_CAT_ID": 39778, "ELEMENT_SET_NO": 999, "REV_AT_EPOCH": 60597, "BSTAR": 0.0015433933, "MEAN_MOTION_DOT": 6.554e-05, "MEAN_MOTION_DDOT": 0}, "tle": {"line1": "1 39778U 97051AAK 25340.16975643  .00006554  00000+0  15434-2 0  9999", "line2": "2 39778  86.3781  46.0776 0008629  61.1506 299.0566 14.54189534605971"}}, "geometry": {"type": "Point", "coordinates": [44.34519542718407, -21.987880284649677]}}, {"type": "Feature", "properties": {"norad_id": 39781, "name": "IRIDIUM 33 DEB", "group": "iridium-33-debris", "lat": 82.517143506003, "lon": 51.54006673156193, "alt_km": 941.3936342346178, "timestamp": "2025-12-06T18:50:10.555149+00:00", "meta": {"OBJECT_NAME": "IRIDIUM 33 DEB", "OBJECT_ID": "1997-051AAN", "EPOCH": "2025-12-06T01:31:14.843136", "MEAN_MOTION": 14.20320372, "ECCENTRICITY": 0.01798533, "INCLINATION": 86.371, "RA_OF_ASC_NODE": 260.7297, "ARG_OF_PERICENTER": 294.3997, "MEAN_ANOMALY": 74.8113, "EPHEMERIS_TYPE": 0, "CLASSIFICATION_TYPE": "U", "NORAD_CAT_ID": 39781, "ELEMENT_SET_NO": 999, "REV_AT_EPOCH": 8012, "BSTAR": 0.0080170442, "MEAN_MOTION_DOT": 0.00020236, "MEAN_MOTION_DDOT": 0}, "tle": {"line1": "1 39781U 97051AAN 25340.06336624  .00020236  00000+0  80170-2 0  9994", "line2": "2 39781  86.3710 260.7297 0179853 294.3997  74.8113 14.20320372 80123"}}, "geometry": {"type": "Point", "coordinates": [51.54006673156193, 82.517143506003]}}, {"type": "Feature", "properties": {"norad_id": 39783, "name": "IRIDIUM 33 DEB", "group": "iridium-33-debris", "lat": -4.117045002426473, "lon": 78.66232892494094, "alt_km": 478.96237503412794, "timestamp": "2025-12-06T18:50:10.555166+00:00", "meta": {"OBJECT_NAME": "IRIDIUM 33 DEB", "OBJECT_ID": "1997-051AAQ", "EPOCH": "2025-11-16T15:05:40.850592", "MEAN_MOTION": 15.19327111, "ECCENTRICITY": 0.00057535, "INCLINATION": 86.1306, "RA_OF_ASC_NODE": 268.8004, "ARG_OF_PERICENTER": 179.9151, "MEAN_ANOMALY": 1.8316, "EPHEMERIS_TYPE": 0, "CLASSIFICATION_TYPE": "U", "NORAD_CAT_ID": 39783, "ELEMENT_SET_NO": 999, "REV_AT_EPOCH": 60401, "BSTAR": 0.010398125, "MEAN_MOTION_DOT": 0.00226179, "MEAN_MOTION_DDOT": 0}, "tle": {"line1": "1 39783U 97051AAQ 25320.62894503  .00226179  00000+0  10398-1 0  9999", "line2": "2 39783  86.1306 268.8004 0005753 179.9151   1.8316 15.19327111604018"}}, "geometry": {"type": "Point", "coordinates": [78.66232892494094, -4.117045002426473]}}, {"type": "Feature", "properties": {"norad_id": 40996, "name": "IRIDIUM 33 DEB", "group": "iridium-33-debris", "lat": 86.04800732192665, "lon": 71.6192782681782, "alt_km": 564.9431574061919, "timestamp": "2025-12-06T18:50:10.555183+00:00", "meta": {"OBJECT_NAME": "IRIDIUM 33 DEB", "OBJECT_ID": "1997-051ABJ", "EPOCH": "2025-12-02T08:31:11.979264", "MEAN_MOTION": 14.95250831, "ECCENTRICITY": 0.00120962, "INCLINATION": 86.3524, "RA_OF_ASC_NODE": 6.2584, "ARG_OF_PERICENTER": 92.2467, "MEAN_ANOMALY": 284.2756, "EPHEMERIS_TYPE": 0, "CLASSIFICATION_TYPE": "U", "NORAD_CAT_ID": 40996, "ELEMENT_SET_NO": 999, "REV_AT_EPOCH": 62333, "BSTAR": 0.0031243939, "MEAN_MOTION_DOT": 0.0003457, "MEAN_MOTION_DDOT": 0}, "tle": {"line1": "1 40996U 97051ABJ 25336.35499976  .00034570  00000+0  31244-2 0  9995", "line2": "2 40996  86.3524   6.2584 0012096  92.2467 284.2756 14.95250831623330"}}, "geometry": {"type": "Point", "coordinates": [71.6192782681782, 86.04800732192665]}}, {"type": "Feature", "properties": {"norad_id": 40998, "name": "IRIDIUM 33 DEB", "group": "iridium-33-debris", "lat": -13.820547669889487, "lon": -122.90864227629605, "alt_km": 747.2062271628674, "timestamp": "2025-12-06T18:50:10.555199+00:00", "meta": {"OBJECT_NAME": "IRIDIUM 33 DEB", "OBJECT_ID": "1997-051ABL", "EPOCH": "2025-12-03T12:06:12.154176", "MEAN_MOTION": 14.45043538, "ECCENTRICITY": 0.00095708, "INCLINATION": 86.3836, "RA_OF_ASC_NODE": 57.6004, "ARG_OF_PERICENTER": 108.6038, "MEAN_ANOMALY": 309.9308, "EPHEMERIS_TYPE": 0, "CLASSIFICATION_TYPE": "U", "NORAD_CAT_ID": 40998, "ELEMENT_SET_NO": 999, "REV_AT_EPOCH": 6548, "BSTAR": 0.00081638604, "MEAN_MOTION_DOT": 2.87e-05, "MEAN_MOTION_DDOT": 0}, "tle": {"line1": "1 40998U 97051ABL 25337.50430734  .00002870  00000+0  81639-3 0  9994", "line2": "2 40998  86.3836  57.6004 0009570 108.6038 309.9308 14.45043538 65487"}}, "geometry": {"type": "Point", "coordinates": [-122.90864227629605, -13.820547669889487]}}, {"type": "Feature", "properties": {"norad_id": 46435, "name": "IRIDIUM 33 DEB", "group": "iridium-33-debris", "lat": -18.541825802556986, "lon": -164.7390940182483, "alt_km": 684.0472300162955, "timestamp": "2025-12-06T18:50:10.555215+00:00", "meta": {"OBJECT_NAME": "IRIDIUM 33 DEB", "OBJECT_ID": "1997-051ABN", "EPOCH": "2025-12-05T21:11:31.918848", "MEAN_MOTION": 14.31677578, "ECCENTRICITY": 0.02114169, "INCLINATION": 86.2838, "RA_OF_ASC_NODE": 196.8975, "ARG_OF_PERICENTER": 298.5374, "MEAN_ANOMALY": 75.9758, "EPHEMERIS_TYPE": 0, "CLASSIFICATION_TYPE": "U", "NORAD_CAT_ID": 46435, "ELEMENT_SET_NO": 999, "REV_AT_EPOCH": 7818, "BSTAR": 0.013325528, "MEAN_MOTION_DOT": 0.00045688, "MEAN_MOTION_DDOT": 0}, "tle": {"line1": "1 46435U 97051ABN 25339.88300832  .00045688  00000+0  13326-1 0  9994", "line2": "2 46435  86.2838 196.8975 0211416 298.5374  75.9758 14.31677578 78181"}}, "geometry": {"type": "Point", "coordinates": [-164.7390940182483, -18.541825802556986]}}, {"type": "Feature", "properties": {"norad_id": 46734, "name": "IRIDIUM 33 DEB", "group": "iridium-33-debris", "lat": -38.78194518956199, "lon": 2.469905501754821, "alt_km": 735.8158614660897, "timestamp": "2025-12-06T18:50:10.555231+00:00", "meta": {"OBJECT_NAME": "IRIDIUM 33 DEB", "OBJECT_ID": "1997-051ABR", "EPOCH": "2025-12-03T20:12:35.443296", "MEAN_MOTION": 14.41795233, "ECCENTRICITY": 0.00394426, "INCLINATION": 86.2642, "RA_OF_ASC_NODE": 6.7702, "ARG_OF_PERICENTER": 5.4679, "MEAN_ANOMALY": 171.2392, "EPHEMERIS_TYPE": 0, "CLASSIFICATION_TYPE": "U", "NORAD_CAT_ID": 46734, "ELEMENT_SET_NO": 999, "REV_AT_EPOCH": 62882, "BSTAR": 0.0014594249, "MEAN_MOTION_DOT": 4.83e-05, "MEAN_MOTION_DDOT": 0}, "tle": {"line1": "1 46734U 97051ABR 25337.84207689  .00004830  00000+0  14594-2 0  9999", "line2": "2 46734  86.2642   6.7702 0039442   5.4679 171.2392 14.41795233628829"}}, "geometry": {"type": "Point", "coordinates": [2.469905501754821, -38.78194518956199]}}, {"type": "Feature", "properties": {"norad_id": 46965, "name": "IRIDIUM 33 DEB", "group": "iridium-33-debris", "lat": 64.98829000292521, "lon": -8.763755811366211, "alt_km": 681.86234135019, "timestamp": "2025-12-06T18:50:10.555248+00:00", "meta": {"OBJECT_NAME": "IRIDIUM 33 DEB", "OBJECT_ID": "1997-051ABX", "EPOCH": "2025-12-05T18:41:20.860224", "MEAN_MOTION": 14.60213738, "ECCENTRICITY": 0.00190424, "INCLINATION": 86.3344, "RA_OF_ASC_NODE": 343.7847, "ARG_OF_PERICENTER": 357.3462, "MEAN_ANOMALY": 182.1313, "EPHEMERIS_TYPE": 0, "CLASSIFICATION_TYPE": "U", "NORAD_CAT_ID": 46965, "ELEMENT_SET_NO": 999, "REV_AT_EPOCH": 62166, "BSTAR": 0.0015532807, "MEAN_MOTION_DOT": 7.528e-05, "MEAN_MOTION_DDOT": 0}, "tle": {"line1": "1 46965U 97051ABX 25339.77871366  .00007528  00000+0  15533-2 0  9999", "line2": "2 46965  86.3344 343.7847 0019042 357.3462 182.1313 14.60213738621667"}}, "geometry": {"type": "Point", "coordinates": [-8.763755811366211, 64.98829000292521]}}, {"type": "Feature", "properties": {"norad_id": 46971, "name": "IRIDIUM 33 DEB", "group": "iridium-33-debris", "lat": 62.404568568861464, "lon": -17.049103656424826, "alt_km": 567.9968950551247, "timestamp": "2025-12-06T18:50:10.555264+00:00", "meta": {"OBJECT_NAME": "IRIDIUM 33 DEB", "OBJECT_ID": "1997-051ACD", "EPOCH": "2025-11-30T18:57:44.502624", "MEAN_MOTION": 14.96904917, "ECCENTRICITY": 0.00065248, "INCLINATION": 86.3392, "RA_OF_ASC_NODE": 338.7285, "ARG_OF_PERICENTER": 8.9727, "MEAN_ANOMALY": 165.6369, "EPHEMERIS_TYPE": 0, "CLASSIFICATION_TYPE": "U", "NORAD_CAT_ID": 46971, "ELEMENT_SET_NO": 999, "REV_AT_EPOCH": 64051, "BSTAR": 0.0032009998, "MEAN_MOTION_DOT": 0.00036919, "MEAN_MOTION_DDOT": 0}, "tle": {"line1": "1 46971U 97051ACD 25334.79009841  .00036919  00000+0  32010-2 0  9999", "line2": "2 46971  86.3392 338.7285 0006524   8.9727 165.6369 14.96904917640518"}}, "geometry": {"type": "Point", "coordinates": [-17.049103656424826, 62.404568568861464]}}, {"type": "Feature", "properties": {"norad_id": 46974, "name": "IRIDIUM 33 DEB", "group": "iridium-33-debris", "lat": 57.39115040910444, "lon": -77.93638736793254, "alt_km": 731.793195422294, "timestamp": "2025-12-06T18:50:10.555286+00:00", "meta": {"OBJECT_NAME": "IRIDIUM 33 DEB", "OBJECT_ID": "1997-051ACG", "EPOCH": "2025-12-03T15:25:18.733152", "MEAN_MOTION": 14.43893104, "ECCENTRICITY": 0.00960014, "INCLINATION": 86.2979, "RA_OF_ASC_NODE": 109.2433, "ARG_OF_PERICENTER": 216.6177, "MEAN_ANOMALY": 142.8439, "EPHEMERIS_TYPE": 0, "CLASSIFICATION_TYPE": "U", "NORAD_CAT_ID": 46974, "ELEMENT_SET_NO": 999, "REV_AT_EPOCH": 57377, "BSTAR": 0.0066247967, "MEAN_MOTION_DOT": 0.0002397, "MEAN_MOTION_DDOT": 0}, "tle": {"line1": "1 46974U 97051ACG 25337.64257793  .00023970  00000+0  66248-2 0  9993", "line2": "2 46974  86.2979 109.2433 0096001 216.6177 142.8439 14.43893104573778"}}, "geometry": {"type": "Point", "coordinates": [-77.93638736793254, 57.39115040910444]}}]}